$$SOE
2460147.500000000, A.D. 2023-Jul-22 00:00:00.0000, -9.722545951487942E+07, -3.812162957774079E+08, -8.389803494215310E+05,
2460154.500000000, A.D. 2023-Jul-29 00:00:00.0000, -8.679405099368672E+07, -3.829489900816302E+08, -6.794297453903854E+05,
2460161.500000000, A.D. 2023-Aug-05 00:00:00.0000, -7.629310777026686E+07, -3.843746333781206E+08, -5.193330037465692E+05,
2460168.500000000, A.D. 2023-Aug-12 00:00:00.0000, -6.573068231518398E+07, -3.854902196015596E+08, -3.588158449187279E+05,
2460175.500000000, A.D. 2023-Aug-19 00:00:00.0000, -5.511496354288740E+07, -3.862928927551532E+08, -1.980058308559358E+05,
2460182.500000000, A.D. 2023-Aug-26 00:00:00.0000, -4.445427817930178E+07, -3.867799522525271E+08, -3.703237102019787E+04,
2460189.500000000, A.D. 2023-Sep-02 00:00:00.0000, -3.375709203776901E+07, -3.869488586791145E+08, 1.239732692207992E+05,
2460196.500000000, A.D. 2023-Sep-09 00:00:00.0000, -2.303201114444485E+07, -3.867972400225077E+08, 2.848779514063001E+05,
2460203.500000000, A.D. 2023-Sep-16 00:00:00.0000, -1.228778252165707E+07, -3.863228984385712E+08, 4.455466183105707E+05,
2460210.500000000, A.D. 2023-Sep-23 00:00:00.0000, -1.533294188785984E+06, -3.855238172747202E+08, 6.058422056125998E+05,
2460217.500000000, A.D. 2023-Sep-30 00:00:00.0000, 9.222425305156684E+06, -3.843981671666121E+08, 7.656256399602592E+05,
2460224.500000000, A.D. 2023-Oct-07 00:00:00.0000, 1.997020549072554E+07, -3.829443117558041E+08, 9.247560954895616E+05,
2460231.500000000, A.D. 2023-Oct-14 00:00:00.0000, 3.070073179907413E+07, -3.811608163447241E+08, 1.083091143051386E+06,
2460238.500000000, A.D. 2023-Oct-21 00:00:00.0000, 4.140454585600731E+07, -3.790464578908490E+08, 1.240486627506614E+06,
2460245.500000000, A.D. 2023-Oct-28 00:00:00.0000, 5.207204685809220E+07, -3.766002340846801E+08, 1.396796589249879E+06,
2460252.500000000, A.D. 2023-Nov-04 00:00:00.0000, 6.269349281554952E+07, -3.738213722841219E+08, 1.551873282556057E+06,
2460259.500000000, A.D. 2023-Nov-11 00:00:00.0000, 7.325900187624967E+07, -3.707093389049803E+08, 1.705567226335675E+06,
2460266.500000000, A.D. 2023-Nov-18 00:00:00.0000, 8.375855398890477E+07, -3.672638493294787E+08, 1.857727262798220E+06,
2460273.500000000, A.D. 2023-Nov-25 00:00:00.0000, 9.418199301878130E+07, -3.634848783048357E+08, 2.008200619961530E+06,
2460280.500000000, A.D. 2023-Dec-02 00:00:00.0000, 1.045190293873278E+08, -3.593726708345410E+08, 2.156832975112468E+06,
2460287.500000000, A.D. 2023-Dec-09 00:00:00.0000, 1.147592433599341E+08, -3.549277536106616E+08, 2.303468507860795E+06,
2460294.500000000, A.D. 2023-Dec-16 00:00:00.0000, 1.248920893178561E+08, -3.501509469628171E+08, 2.447949918250352E+06,
2460301.500000000, A.D. 2023-Dec-23 00:00:00.0000, 1.349069014120238E+08, -3.450433766220599E+08, 2.590118435082704E+06,
2460308.500000000, A.D. 2023-Dec-30 00:00:00.0000, 1.447928993082547E+08, -3.396064842312388E+08, 2.729814023931950E+06,
2460315.500000000, A.D. 2024-Jan-06 00:00:00.0000, 1.545391923022507E+08, -3.338420389363005E+08, 2.866875764946342E+06,
2460322.500000000, A.D. 2024-Jan-13 00:00:00.0000, 1.641347850309422E+08, -3.277521518332791E+08, 3.001141961975738E+06,
2460329.500000000, A.D. 2024-Jan-20 00:00:00.0000, 1.735685860602614E+08, -3.213392901518783E+08, 3.132450123319298E+06,
2460336.500000000, A.D. 2024-Jan-27 00:00:00.0000, 1.828294173773663E+08, -3.146062904849125E+08, 3.260637054123804E+06,
2460343.500000000, A.D. 2024-Feb-03 00:00:00.0000, 1.919060244155906E+08, -3.075563719670026E+08, 3.385539022827014E+06,
2460350.500000000, A.D. 2024-Feb-10 00:00:00.0000, 2.007870869464027E+08, -3.001931496417274E+08, 3.506991953034580E+06,
2460357.500000000, A.D. 2024-Feb-17 00:00:00.0000, 2.094612310337674E+08, -2.925206479509654E+08, 3.624831629441813E+06,
2460364.500000000, A.D. 2024-Feb-24 00:00:00.0000, 2.179170421421613E+08, -2.845433142664595E+08, 3.738893916405320E+06,
2460371.500000000, A.D. 2024-Mar-02 00:00:00.0000, 2.261430794804986E+08, -2.762660324229437E+08, 3.849014984387875E+06,
2460378.500000000, A.D. 2024-Mar-09 00:00:00.0000, 2.341278917713877E+08, -2.676941362339900E+08, 3.955031526916653E+06,
2460385.500000000, A.D. 2024-Mar-16 00:00:00.0000, 2.418600348889478E+08, -2.588334227048251E+08, 4.056780948736563E+06,
2460392.500000000, A.D. 2024-Mar-23 00:00:00.0000, 2.493280913031206E+08, -2.496901637381459E+08, 4.154101626264319E+06,
2460399.500000000, A.D. 2024-Mar-30 00:00:00.0000, 2.565206891208844E+08, -2.402711162531461E+08, 4.246833443912700E+06,
2460406.500000000, A.D. 2024-Apr-06 00:00:00.0000, 2.634265210047728E+08, -2.305835339621402E+08, 4.334818306605458E+06,
2460413.500000000, A.D. 2024-Apr-13 00:00:00.0000, 2.700343665441905E+08, -2.206351798342291E+08, 4.417900370097101E+06,
2460420.500000000, A.D. 2024-Apr-20 00:00:00.0000, 2.763331171507654E+08, -2.104343364345047E+08, 4.495926295202613E+06,
2460427.500000000, A.D. 2024-Apr-27 00:00:00.0000, 2.823118019737679E+08, -1.999898145645275E+08, 4.568745619889259E+06,
2460434.500000000, A.D. 2024-May-04 00:00:00.0000, 2.879596149205024E+08, -1.893109607655213E+08, 4.636211184223942E+06,
2460441.500000000, A.D. 2024-May-11 00:00:00.0000, 2.932659430004970E+08, -1.784076636347920E+08, 4.698179578015096E+06,
2460448.500000000, A.D. 2024-May-18 00:00:00.0000, 2.982203960405644E+08, -1.672903587736042E+08, 4.754511604924791E+06,
2460455.500000000, A.D. 2024-May-25 00:00:00.0000, 3.028128377450668E+08, -1.559700322072621E+08, 4.805072759368271E+06,
2460462.500000000, A.D. 2024-Jun-01 00:00:00.0000, 3.070334180930759E+08, -1.444582221646274E+08, 4.849733704729579E+06,
2460469.500000000, A.D. 2024-Jun-08 00:00:00.0000, 3.108726072303017E+08, -1.327670190659987E+08, 4.888370726493418E+06,
2460476.500000000, A.D. 2024-Jun-15 00:00:00.0000, 3.143212311493299E+08, -1.209090629971064E+08, 4.920866166283011E+06,
2460483.500000000, A.D. 2024-Jun-22 00:00:00.0000, 3.173705080332250E+08, -1.088975373220834E+08, 4.947109023933113E+06,
2460490.500000000, A.D. 2024-Jun-29 00:00:00.0000, 3.200120829984426E+08, -9.674616009469149E+07, 4.966995771773078E+06,
2460497.500000000, A.D. 2024-Jul-06 00:00:00.0000, 3.222380637089006E+08, -8.446917558109142E+07, 4.980430933363847E+06,
2460504.500000000, A.D. 2024-Jul-13 00:00:00.0000, 3.240410586147847E+08, -7.208134291687548E+07, 4.987327475197252E+06,
2460511.500000000, A.D. 2024-Jul-20 00:00:00.0000, 3.254142156167733E+08, -5.959792061044468E+07, 4.987607284114659E+06,
2460518.500000000, A.D. 2024-Jul-27 00:00:00.0000, 3.263512602644075E+08, -4.703464773043749E+07, 4.981201708622336E+06,
2460525.500000000, A.D. 2024-Aug-03 00:00:00.0000, 3.268465335039338E+08, -3.440772204931936E+07, 4.968052104365219E+06,
2460532.500000000, A.D. 2024-Aug-10 00:00:00.0000, 3.268950288633570E+08, -2.173377506653089E+07, 4.948110363759554E+06,
2460539.500000000, A.D. 2024-Aug-17 00:00:00.0000, 3.264924288259544E+08, -9.029843833567061E+06, 4.921339422549797E+06,
2460546.500000000, A.D. 2024-Aug-24 00:00:00.0000, 3.256351401089396E+08, 3.686660423959690E+06, 4.887713734099693E+06,
2460553.500000000, A.D. 2024-Aug-31 00:00:00.0000, 3.243203276394919E+08, 1.639798681997659E+07, 4.847219690756662E+06,
2460560.500000000, A.D. 2024-Sep-07 00:00:00.0000, 3.225459472577017E+08, 2.908608254096822E+07, 4.799855963400524E+06,
2460567.500000000, A.D. 2024-Sep-14 00:00:00.0000, 3.203107768840682E+08, 4.173263471721937E+07, 4.745633826837983E+06,
2460574.500000000, A.D. 2024-Sep-21 00:00:00.0000, 3.176144437816576E+08, 5.431911673424654E+07, 4.684577686668586E+06,
2460581.500000000, A.D. 2024-Sep-28 00:00:00.0000, 3.144574470972594E+08, 6.682683559679762E+07, 4.616725584530517E+06,
2460588.500000000, A.D. 2024-Oct-05 00:00:00.0000, 3.108411790172226E+08, 7.923698013949203E+07, 4.542129339453798E+06,
2460595.500000000, A.D. 2024-Oct-12 00:00:00.0000, 3.067679438487628E+08, 9.153067282177214E+07, 4.460854596649457E+06,
2460602.500000000, A.D. 2024-Oct-19 00:00:00.0000, 3.022409729704346E+08, 1.036890245574713E+08, 4.372980918029025E+06,
2460609.500000000, A.D. 2024-Oct-26 00:00:00.0000, 2.972644353418721E+08, 1.156931914620504E+08, 4.278601848313749E+06,
2460616.500000000, A.D. 2024-Nov-02 00:00:00.0000, 2.918434435865931E+08, 1.275244330195401E+08, 4.177824918043554E+06,
2460623.500000000, A.D. 2024-Nov-09 00:00:00.0000, 2.859840555414733E+08, 1.391641713078478E+08, 4.070771574186794E+06,
2460630.500000000, A.D. 2024-Nov-16 00:00:00.0000, 2.796932711401721E+08, 1.505940508702035E+08, 3.957577034711674E+06,
2460637.500000000, A.D. 2024-Nov-23 00:00:00.0000, 2.729790245652991E+08, 1.617959987445302E+08, 3.838390058273003E+06,
2460644.500000000, A.D. 2024-Nov-30 00:00:00.0000, 2.658501718150972E+08, 1.727522841506193E+08, 3.713372606716074E+06,
2460651.500000000, A.D. 2024-Dec-07 00:00:00.0000, 2.583164740940368E+08, 1.834455777832046E+08, 3.582699396819063E+06,
2460658.500000000, A.D. 2024-Dec-14 00:00:00.0000, 2.503885763742852E+08, 1.938590114504268E+08, 3.446557504975513E+06,
2460665.500000000, A.D. 2024-Dec-21 00:00:00.0000, 2.420779788935082E+08, 2.039762363414909E+08, 3.305146138752565E+06,
2460672.500000000, A.D. 2024-Dec-28 00:00:00.0000, 2.333970037160072E+08, 2.137814764938130E+08, 3.158676155163631E+06,
2460679.500000000, A.D. 2025-Jan-04 00:00:00.0000, 2.243587591534614E+08, 2.232595793732841E+08, 3.007369283155128E+06,
2460686.500000000, A.D. 2025-Jan-11 00:00:00.0000, 2.149771004557267E+08, 2.323960647935790E+08, 2.851457356571227E+06,
2460693.500000000, A.D. 2025-Jan-18 00:00:00.0000, 2.052665861402498E+08, 2.411771708694093E+08, 2.691181573149100E+06,
2460700.500000000, A.D. 2025-Jan-25 00:00:00.0000, 1.952424305472395E+08, 2.495898961872469E+08, 2.526791726346985E+06,
2460707.500000000, A.D. 2025-Feb-01 00:00:00.0000, 1.849204532018640E+08, 2.576220378599598E+08, 2.358545397946060E+06,
2460714.500000000, A.D. 2025-Feb-08 00:00:00.0000, 1.743170254661950E+08, 2.652622252200128E+08, 2.186707114683002E+06,
$$EOE